ONEWEB-0412             
1 50489U 21132W   25359.57487663  .00000039  00000+0  66032-4 0  9997
2 50489  87.9178   9.9341 0002091  86.6857 273.4515 13.18687396198777
ONEWEB-0413             
1 50490U 21132X   25359.50396601  .00000065  00000+0  13142-3 0  9995
2 50490  87.9166   9.9598 0001976  83.3913 276.7444 13.18685187198704
ONEWEB-0414             
1 50491U 21132Y   25359.56498319  .00000036  00000+0  58248-4 0  9996
2 50491  87.9178   9.9123 0001987  92.9478 267.1882 13.18686917198742
ONEWEB-0417             
1 50492U 21132Z   25359.42148150  .00000089  00000+0  19298-3 0  9996
2 50492  87.9176   9.9750 0001765  98.9135 261.2197 13.18687654198706
ONEWEB-0418             
1 50493U 21132AA  25359.58299520 -.00000006  00000+0 -49081-4 0  9997
2 50493  87.9175   9.9265 0001787 108.5183 251.6143 13.18686351198787
ONEWEB-0419             
1 50494U 21132AB  25359.52539977  .00000038  00000+0  64041-4 0  9991
2 50494  87.9173   9.9384 0001513  98.9382 261.1921 13.18687224198698
ONEWEB-0420             
1 50495U 21132AC  25359.56663919 -.00000018  00000+0 -79455-4 0  9995
2 50495  87.9177   9.9423 0001795  85.2725 274.8612 13.18685628198693
ONEWEB-0421             
1 50496U 21132AD  25359.56004549  .00000002  00000+0 -27044-4 0  9993
2 50496  87.9175   9.9360 0002090  92.5456 267.5916 13.18685876198739
ONEWEB-0424             
1 50497U 21132AE  25359.59632652 -.00000034  00000+0 -12005-3 0  9995
2 50497  87.9171   9.9241 0001411  94.7057 265.4236 13.18687616198760
ONEWEB-0426             
1 50498U 21132AF  25359.55672933  .00000035  00000+0  55299-4 0  9990
2 50498  87.9177   9.9236 0002356 103.1938 256.9458 13.18686927198702
ONEWEB-0427             
1 50499U 21132AG  25359.59468933  .00000046  00000+0  84439-4 0  9998
2 50499  87.9171   9.9037 0001759  99.3437 260.7894 13.18685765198731
ONEWEB-0429             
1 50500U 21132AH  25359.58148384 -.00000003  00000+0 -40479-4 0  9996
2 50500  87.9173   9.9384 0001745  86.0244 274.1087 13.18686844198704
ONEWEB-0430             
1 50501U 21132AJ  25359.49405145 -.00000013  00000+0 -66061-4 0  9994
2 50501  87.9179   9.9517 0001546  86.9728 273.1581 13.18687221198735
ONEWEB-0432             
1 50502U 21132AK  25359.52606794  .00000043  00000+0  77589-4 0  9990
2 50502  87.9170   9.9165 0001414 122.7584 237.3685 13.18677966198696
ONEWEB-0440             
1 50503U 21132AL  25359.51386007  .00000038  00000+0  63072-4 0  9998
2 50503  87.9177   9.9376 0002159  85.0527 275.0851 13.18686633198687
ONEWEB-0450             
1 50504U 21132AM  25359.58328139  .00000010  00000+0 -61176-5 0  9993
2 50504  87.9167   9.9450 0001699  82.1129 278.0195 13.18684809198726
ONEWEB-0410             
1 51622U 22012A   25359.62717558 -.00000035  00000+0 -12446-3 0  9997
2 51622  87.9108  40.3511 0002686 126.6813 233.4566 13.17645741190844
