[{"OBJECT_NAME":"ONEWEB-0412","OBJECT_ID":"2021-132W","EPOCH":"2025-12-25T13:47:49.340832","MEAN_MOTION":13.18687396,"ECCENTRICITY":0.0002091,"INCLINATION":87.9178,"RA_OF_ASC_NODE":9.9341,"ARG_OF_PERICENTER":86.6857,"MEAN_ANOMALY":273.4515,"EPHEMERIS_TYPE":0,"CLASSIFICATION_TYPE":"U","NORAD_CAT_ID":50489,"ELEMENT_SET_NO":999,"REV_AT_EPOCH":19877,"BSTAR":6.6032e-5,"MEAN_MOTION_DOT":3.9e-7,"MEAN_MOTION_DDOT":0},{"OBJECT_NAME":"ONEWEB-0413","OBJECT_ID":"2021-132X","EPOCH":"2025-12-25T12:05:42.663264","MEAN_MOTION":13.18685187,"ECCENTRICITY":0.0001976,"INCLINATION":87.9166,"RA_OF_ASC_NODE":9.9598,"ARG_OF_PERICENTER":83.3913,"MEAN_ANOMALY":276.7444,"EPHEMERIS_TYPE":0,"CLASSIFICATION_TYPE":"U","NORAD_CAT_ID":50490,"ELEMENT_SET_NO":999,"REV_AT_EPOCH":19870,"BSTAR":0.00013142,"MEAN_MOTION_DOT":6.5e-7,"MEAN_MOTION_DDOT":0},{"OBJECT_NAME":"ONEWEB-0414","OBJECT_ID":"2021-132Y","EPOCH":"2025-12-25T13:33:34.547616","MEAN_MOTION":13.18686917,"ECCENTRICITY":0.0001987,"INCLINATION":87.9178,"RA_OF_ASC_NODE":9.9123,"ARG_OF_PERICENTER":92.9478,"MEAN_ANOMALY":267.1882,"EPHEMERIS_TYPE":0,"CLASSIFICATION_TYPE":"U","NORAD_CAT_ID":50491,"ELEMENT_SET_NO":999,"REV_AT_EPOCH":19874,"BSTAR":5.8248e-5,"MEAN_MOTION_DOT":3.6e-7,"MEAN_MOTION_DDOT":0},{"OBJECT_NAME":"ONEWEB-0417","OBJECT_ID":"2021-132Z","EPOCH":"2025-12-25T10:06:56.001600","MEAN_MOTION":13.18687654,"ECCENTRICITY":0.0001765,"INCLINATION":87.9176,"RA_OF_ASC_NODE":9.975,"ARG_OF_PERICENTER":98.9135,"MEAN_ANOMALY":261.2197,"EPHEMERIS_TYPE":0,"CLASSIFICATION_TYPE":"U","NORAD_CAT_ID":50492,"ELEMENT_SET_NO":999,"REV_AT_EPOCH":19870,"BSTAR":0.00019298,"MEAN_MOTION_DOT":8.9e-7,"MEAN_MOTION_DDOT":0},{"OBJECT_NAME":"ONEWEB-0418","OBJECT_ID":"2021-132AA","EPOCH":"2025-12-25T13:59:30.785280","MEAN_MOTION":13.18686351,"ECCENTRICITY":0.0001787,"INCLINATION":87.9175,"RA_OF_ASC_NODE":9.9265,"ARG_OF_PERICENTER":108.5183,"MEAN_ANOMALY":251.6143,"EPHEMERIS_TYPE":0,"CLASSIFICATION_TYPE":"U","NORAD_CAT_ID":50493,"ELEMENT_SET_NO":999,"REV_AT_EPOCH":19878,"BSTAR":-4.9081e-5,"MEAN_MOTION_DOT":-6.0e-8,"MEAN_MOTION_DDOT":0},{"OBJECT_NAME":"ONEWEB-0419","OBJECT_ID":"2021-132AB","EPOCH":"2025-12-25T12:36:34.540128","MEAN_MOTION":13.18687224,"ECCENTRICITY":0.0001513,"INCLINATION":87.9173,"RA_OF_ASC_NODE":9.9384,"ARG_OF_PERICENTER":98.9382,"MEAN_ANOMALY":261.1921,"EPHEMERIS_TYPE":0,"CLASSIFICATION_TYPE":"U","NORAD_CAT_ID":50494,"ELEMENT_SET_NO":999,"REV_AT_EPOCH":19869,"BSTAR":6.4041e-5,"MEAN_MOTION_DOT":3.8e-7,"MEAN_MOTION_DDOT":0},{"OBJECT_NAME":"ONEWEB-0420","OBJECT_ID":"2021-132AC","EPOCH":"2025-12-25T13:35:57.626016","MEAN_MOTION":13.18685628,"ECCENTRICITY":0.0001795,"INCLINATION":87.9177,"RA_OF_ASC_NODE":9.9423,"ARG_OF_PERICENTER":85.2725,"MEAN_ANOMALY":274.8612,"EPHEMERIS_TYPE":0,"CLASSIFICATION_TYPE":"U","NORAD_CAT_ID":50495,"ELEMENT_SET_NO":999,"REV_AT_EPOCH":19869,"BSTAR":-7.9455e-5,"MEAN_MOTION_DOT":-1.8e-7,"MEAN_MOTION_DDOT":0},{"OBJECT_NAME":"ONEWEB-0421","OBJECT_ID":"2021-132AD","EPOCH":"2025-12-25T13:26:27.930336","MEAN_MOTION":13.18685876,"ECCENTRICITY":0.000209,"INCLINATION":87.9175,"RA_OF_ASC_NODE":9.936,"ARG_OF_PERICENTER":92.5456,"MEAN_ANOMALY":267.5916,"EPHEMERIS_TYPE":0,"CLASSIFICATION_TYPE":"U","NORAD_CAT_ID":50496,"ELEMENT_SET_NO":999,"REV_AT_EPOCH":19873,"BSTAR":-2.7044e-5,"MEAN_MOTION_DOT":2.0e-8,"MEAN_MOTION_DDOT":0},{"OBJECT_NAME":"ONEWEB-0424","OBJECT_ID":"2021-132AE","EPOCH":"2025-12-25T14:18:42.611328","MEAN_MOTION":13.18687616,"ECCENTRICITY":0.0001411,"INCLINATION":87.9171,"RA_OF_ASC_NODE":9.9241,"ARG_OF_PERICENTER":94.7057,"MEAN_ANOMALY":265.4236,"EPHEMERIS_TYPE":0,"CLASSIFICATION_TYPE":"U","NORAD_CAT_ID":50497,"ELEMENT_SET_NO":999,"REV_AT_EPOCH":19876,"BSTAR":-0.00012005,"MEAN_MOTION_DOT":-3.4e-7,"MEAN_MOTION_DDOT":0},{"OBJECT_NAME":"ONEWEB-0426","OBJECT_ID":"2021-132AF","EPOCH":"2025-12-25T13:21:41.414112","MEAN_MOTION":13.18686927,"ECCENTRICITY":0.0002356,"INCLINATION":87.9177,"RA_OF_ASC_NODE":9.9236,"ARG_OF_PERICENTER":103.1938,"MEAN_ANOMALY":256.9458,"EPHEMERIS_TYPE":0,"CLASSIFICATION_TYPE":"U","NORAD_CAT_ID":50498,"ELEMENT_SET_NO":999,"REV_AT_EPOCH":19870,"BSTAR":5.5299e-5,"MEAN_MOTION_DOT":3.5e-7,"MEAN_MOTION_DDOT":0},{"OBJECT_NAME":"ONEWEB-0427","OBJECT_ID":"2021-132AG","EPOCH":"2025-12-25T14:16:21.158112","MEAN_MOTION":13.18685765,"ECCENTRICITY":0.0001759,"INCLINATION":87.9171,"RA_OF_ASC_NODE":9.9037,"ARG_OF_PERICENTER":99.3437,"MEAN_ANOMALY":260.7894,"EPHEMERIS_TYPE":0,"CLASSIFICATION_TYPE":"U","NORAD_CAT_ID":50499,"ELEMENT_SET_NO":999,"REV_AT_EPOCH":19873,"BSTAR":8.4439e-5,"MEAN_MOTION_DOT":4.6e-7,"MEAN_MOTION_DDOT":0},{"OBJECT_NAME":"ONEWEB-0429","OBJECT_ID":"2021-132AH","EPOCH":"2025-12-25T13:57:20.203776","MEAN_MOTION":13.18686844,"ECCENTRICITY":0.0001745,"INCLINATION":87.9173,"RA_OF_ASC_NODE":9.9384,"ARG_OF_PERICENTER":86.0244,"MEAN_ANOMALY":274.1087,"EPHEMERIS_TYPE":0,"CLASSIFICATION_TYPE":"U","NORAD_CAT_ID":50500,"ELEMENT_SET_NO":999,"REV_AT_EPOCH":19870,"BSTAR":-4.0479e-5,"MEAN_MOTION_DOT":-3.0e-8,"MEAN_MOTION_DDOT":0},{"OBJECT_NAME":"ONEWEB-0430","OBJECT_ID":"2021-132AJ","EPOCH":"2025-12-25T11:51:26.045280","MEAN_MOTION":13.18687221,"ECCENTRICITY":0.0001546,"INCLINATION":87.9179,"RA_OF_ASC_NODE":9.9517,"ARG_OF_PERICENTER":86.9728,"MEAN_ANOMALY":273.1581,"EPHEMERIS_TYPE":0,"CLASSIFICATION_TYPE":"U","NORAD_CAT_ID":50501,"ELEMENT_SET_NO":999,"REV_AT_EPOCH":19873,"BSTAR":-6.6061e-5,"MEAN_MOTION_DOT":-1.3e-7,"MEAN_MOTION_DDOT":0},{"OBJECT_NAME":"ONEWEB-0432","OBJECT_ID":"2021-132AK","EPOCH":"2025-12-25T12:37:32.270016","MEAN_MOTION":13.18677966,"ECCENTRICITY":0.0001414,"INCLINATION":87.917,"RA_OF_ASC_NODE":9.9165,"ARG_OF_PERICENTER":122.7584,"MEAN_ANOMALY":237.3685,"EPHEMERIS_TYPE":0,"CLASSIFICATION_TYPE":"U","NORAD_CAT_ID":50502,"ELEMENT_SET_NO":999,"REV_AT_EPOCH":19869,"BSTAR":7.7589e-5,"MEAN_MOTION_DOT":4.3e-7,"MEAN_MOTION_DDOT":0},{"OBJECT_NAME":"ONEWEB-0440","OBJECT_ID":"2021-132AL","EPOCH":"2025-12-25T12:19:57.510048","MEAN_MOTION":13.18686633,"ECCENTRICITY":0.0002159,"INCLINATION":87.9177,"RA_OF_ASC_NODE":9.9376,"ARG_OF_PERICENTER":85.0527,"MEAN_ANOMALY":275.0851,"EPHEMERIS_TYPE":0,"CLASSIFICATION_TYPE":"U","NORAD_CAT_ID":50503,"ELEMENT_SET_NO":999,"REV_AT_EPOCH":19868,"BSTAR":6.3072e-5,"MEAN_MOTION_DOT":3.8e-7,"MEAN_MOTION_DDOT":0},{"OBJECT_NAME":"ONEWEB-0450","OBJECT_ID":"2021-132AM","EPOCH":"2025-12-25T13:59:55.512096","MEAN_MOTION":13.18684809,"ECCENTRICITY":0.0001699,"INCLINATION":87.9167,"RA_OF_ASC_NODE":9.945,"ARG_OF_PERICENTER":82.1129,"MEAN_ANOMALY":278.0195,"EPHEMERIS_TYPE":0,"CLASSIFICATION_TYPE":"U","NORAD_CAT_ID":50504,"ELEMENT_SET_NO":999,"REV_AT_EPOCH":19872,"BSTAR":-6.1176e-6,"MEAN_MOTION_DOT":1.0e-7,"MEAN_MOTION_DDOT":0},{"OBJECT_NAME":"ONEWEB-0410","OBJECT_ID":"2022-012A","EPOCH":"2025-12-25T15:03:07.970112","MEAN_MOTION":13.17645741,"ECCENTRICITY":0.0002686,"INCLINATION":87.9108,"RA_OF_ASC_NODE":40.3511,"ARG_OF_PERICENTER":126.6813,"MEAN_ANOMALY":233.4566,"EPHEMERIS_TYPE":0,"CLASSIFICATION_TYPE":"U","NORAD_CAT_ID":51622,"ELEMENT_SET_NO":999,"REV_AT_EPOCH":19084,"BSTAR":-0.00012446,"MEAN_MOTION_DOT":-3.5e-7,"MEAN_MOTION_DDOT":0}]
